[{"OBJECT_NAME":"SATELIOT_4","OBJECT_ID":"2024-149BX","EPOCH":"2026-03-09T17:48:54.333792","MEAN_MOTION":14.96254023,"ECCENTRICITY":0.00023903,"INCLINATION":97.6789,"RA_OF_ASC_NODE":145.1106,"ARG_OF_PERICENTER":45.2073,"MEAN_ANOMALY":314.9342,"EPHEMERIS_TYPE":0,"CLASSIFICATION_TYPE":"U","NORAD_CAT_ID":60537,"ELEMENT_SET_NO":999,"REV_AT_EPOCH":8510,"BSTAR":0.00026256084,"MEAN_MOTION_DOT":2.907e-5,"MEAN_MOTION_DDOT":0},{"OBJECT_NAME":"VOLGA DEB","OBJECT_ID":"2019-039F","EPOCH":"2026-03-07T20:53:51.094464","MEAN_MOTION":14.96146064,"ECCENTRICITY":0.00076084,"INCLINATION":97.5888,"RA_OF_ASC_NODE":96.0833,"ARG_OF_PERICENTER":210.1052,"MEAN_ANOMALY":149.9734,"EPHEMERIS_TYPE":0,"CLASSIFICATION_TYPE":"U","NORAD_CAT_ID":44621,"ELEMENT_SET_NO":999,"REV_AT_EPOCH":36129,"BSTAR":0.00038662057,"MEAN_MOTION_DOT":4.299e-5,"MEAN_MOTION_DDOT":0}]
